{
    "links": {
        "self": "http://www.neowsapp.com/rest/v1/neo/3733259?api_key=iIulBulltgU6a56xZRHN4H3l9WmuAYTsLGpBGhQ2"
    },
    "id": "3733259",
    "neo_reference_id": "3733259",
    "name": "(2015 VZ1)",
    "designation": "2015 VZ1",
    "nasa_jpl_url": "http://ssd.jpl.nasa.gov/sbdb.cgi?sstr=3733259",
    "absolute_magnitude_h": 23.2,
    "estimated_diameter": {
        "kilometers": {
            "estimated_diameter_min": 0.0608912622,
            "estimated_diameter_max": 0.1361570015
        },
        "meters": {
            "estimated_diameter_min": 60.8912622106,
            "estimated_diameter_max": 136.1570015386
        },
        "miles": {
            "estimated_diameter_min": 0.0378360645,
            "estimated_diameter_max": 0.0846040122
        },
        "feet": {
            "estimated_diameter_min": 199.7744887109,
            "estimated_diameter_max": 446.7093369279
        }
    },
    "is_potentially_hazardous_asteroid": false,
    "close_approach_data": [
        {
            "close_approach_date": "2015-10-15",
            "close_approach_date_full": "2015-Oct-15 02:29",
            "epoch_date_close_approach": 1444876140000,
            "relative_velocity": {
                "kilometers_per_second": "16.3300477855",
                "kilometers_per_hour": "58788.17202766",
                "miles_per_hour": "36528.6838912979"
            },
            "miss_distance": {
                "astronomical": "0.0992041999",
                "lunar": "38.5904337611",
                "kilometers": "14840737.000094213",
                "miles": "9221606.3602896194"
            },
            "orbiting_body": "Earth"
        }
    ],
    "orbital_data": {
        "orbit_id": "6",
        "orbit_determination_date": "2017-04-06 08:30:59",
        "first_observation_date": "2015-11-03",
        "last_observation_date": "2015-11-11",
        "data_arc_in_days": 8,
        "observations_used": 29,
        "orbit_uncertainty": "9",
        "minimum_orbit_intersection": ".0262484",
        "jupiter_tisserand_invariant": "3.645",
        "epoch_osculation": "2457331.5",
        "eccentricity": ".5594997897610819",
        "semi_major_axis": "1.973234925014825",
        "inclination": "9.202719019636564",
        "ascending_node_longitude": "22.21368181230059",
        "orbital_period": "1012.433757244403",
        "perihelion_distance": ".8692103993198059",
        "perihelion_argument": "299.1078573076931",
        "aphelion_distance": "3.077259450709843",
        "perihelion_time": "2457270.452504961347",
        "mean_anomaly": "21.7071962058351",
        "mean_motion": ".3555788192798232",
        "equinox": "J2000",
        "orbit_class": {
            "orbit_class_type": "APO",
            "orbit_class_description": "Near-Earth asteroid orbits which cross the Earth’s orbit similar to that of 1862 Apollo",
            "orbit_class_range": "a (semi-major axis) > 1.0 AU; q (perihelion) < 1.017 AU"
        }
    },
    "is_sentry_object": false
}